CSS (TIANHE)            
1 48274U 21035A   24076.74725410  .00028980  00000+0  30938-3 0  9997
2 48274  41.4672 288.0914 0009545 190.5827 169.4813 15.63226078164629
